NORAD_CAT_ID,OBJECT_NAME,OBJECT_TYPE,EPOCH,MEAN_MOTION,ECCENTRICITY,INCLINATION,RA_OF_ASC_NODE,ARG_OF_PERICENTER,MEAN_ANOMALY,BSTAR,MEAN_MOTION_DOT,MEAN_MOTION_DDOT,TLE_LINE0,TLE_LINE1,TLE_LINE2,SEMIMAJOR_AXIS,PERIOD,APOGEE,PERIGEE,DECAYED
52853.0,STARLINK-4189,PAYLOAD,2024-02-07 17:27:06,15.0884064,0.0001464,53.2179,200.1891,86.296,273.82,1.73e-05,-1.3e-07,0.0,0 STARLINK-4189,1 52853U 22062Z   24038.72715456 -.00000013  00000-0  17300-4 0  9999,2 52853  53.2179 200.1891 0001464  86.2960 273.8200 15.08840640 91041,6917.878,95.438,540.756,538.731,0.0
52853.0,STARLINK-4189,PAYLOAD,2024-02-08 10:56:21,15.0883078,0.0001352,53.2176,196.9174,92.8128,267.3019,-1.9915e-06,-3.2e-06,0.0,0 STARLINK-4189,1 52853U 22062Z   24039.45580318 -.00000320  00000-0 -19915-5 0  9994,2 52853  53.2176 196.9174 0001352  92.8128 267.3019 15.08830780 91645,6917.909,95.438,540.709,538.838,0.0
52853.0,STARLINK-4189,PAYLOAD,2024-02-08 14:07:07,15.08834586,0.0001252,53.2171,196.3213,91.0272,269.0863,1.1221e-05,-1.09e-06,0.0,0 STARLINK-4189,1 52853U 22062Z   24039.58828078 -.00000109  00000-0  11221-4 0  9991,2 52853  53.2171 196.3213 0001252  91.0272 269.0863 15.08834586 91170,6917.897,95.438,540.628,538.896,0.0
52853.0,STARLINK-4189,PAYLOAD,2024-02-08 15:42:30,15.08836649,0.0001335,53.217,196.0232,86.8591,273.2554,3.5358e-06,-2.32e-06,0.0,0 STARLINK-4189,1 52853U 22062Z   24039.65452027 -.00000232  00000-0  35358-5 0  9991,2 52853  53.2170 196.0232 0001335  86.8591 273.2554 15.08836649 91182,6917.891,95.438,540.679,538.832,0.0
52853.0,STARLINK-4189,PAYLOAD,2024-02-09 13:57:54,15.08842504,0.00014,53.2174,191.8631,83.9023,276.2128,0.00011651,1.567e-05,0.0,0 STARLINK-4189,1 52853U 22062Z   24040.58187604  .00001567  00000-0  11651-3 0  9990,2 52853  53.2174 191.8631 0001400  83.9023 276.2128 15.08842504 91326,6917.873,95.437,540.706,538.769,0.0
52853.0,STARLINK-4189,PAYLOAD,2024-02-09 15:33:17,15.08844308,0.0001407,53.2173,191.5657,83.9455,276.1698,0.00013237,1.82e-05,0.0,0 STARLINK-4189,1 52853U 22062Z   24040.64811455  .00001820  00000-0  13237-3 0  9999,2 52853  53.2173 191.5657 0001407  83.9455 276.1698 15.08844308 91826,6917.867,95.437,540.706,538.759,0.0
52853.0,STARLINK-4189,PAYLOAD,2024-02-10 09:02:32,15.08839504,0.000143,53.2174,188.2972,93.9462,266.1694,0.00010153,1.328e-05,0.0,0 STARLINK-4189,1 52853U 22062Z   24041.37675966  .00001328  00000-0  10153-3 0  9992,2 52853  53.2174 188.2972 0001430  93.9462 266.1694 15.08839504 91934,6917.882,95.438,540.736,538.758,0.0
52853.0,STARLINK-4189,PAYLOAD,2024-02-10 13:48:41,15.08836668,0.0001405,53.2167,187.4003,78.1768,281.9382,6.4532e-05,7.39e-06,0.0,0 STARLINK-4189,1 52853U 22062Z   24041.57548407  .00000739  00000-0  64532-4 0  9999,2 52853  53.2167 187.4003 0001405  78.1768 281.9382 15.08836668 91474,6917.891,95.438,540.728,538.784,0.0
52853.0,STARLINK-4189,PAYLOAD,2024-02-10 18:34:50,15.08839798,0.000145,53.2173,186.5077,74.6987,285.4165,8.3906e-05,1.048e-05,0.0,0 STARLINK-4189,1 52853U 22062Z   24041.77420135  .00001048  00000-0  83906-4 0  9998,2 52853  53.2173 186.5077 0001450  74.6987 285.4165 15.08839798 91505,6917.881,95.438,540.749,538.743,0.0
52853.0,STARLINK-4189,PAYLOAD,2024-02-11 08:53:20,15.08718968,0.000212,53.2172,183.8314,81.6484,278.4748,0.0016588,0.00026123,0.0,0 STARLINK-4189,1 52853U 22062Z   24042.37037116  .00026123  00000-0  16588-2 0  9999,2 52853  53.2172 183.8314 0002120  81.6484 278.4748 15.08718968 92081,6918.25,95.445,541.582,538.649,0.0
52853.0,STARLINK-4189,PAYLOAD,2024-02-11 13:39:27,15.0884261,0.0001555,53.2169,182.9409,88.3126,271.8045,0.00019409,2.803e-05,0.0,0 STARLINK-4189,1 52853U 22062Z   24042.56907383  .00002803  00000-0  19409-3 0  9997,2 52853  53.2169 182.9409 0001555  88.3126 271.8045 15.08842610 91628,6917.872,95.437,540.813,538.662,0.0
52853.0,STARLINK-4189,PAYLOAD,2024-02-11 16:50:13,15.08862104,0.0001447,53.2174,182.3442,75.4788,284.6364,0.00018052,2.588e-05,0.0,0 STARLINK-4189,1 52853U 22062Z   24042.70154229  .00002588  00000-0  18052-3 0  9999,2 52853  53.2174 182.3442 0001447  75.4788 284.6364 15.08862104 92139,6917.813,95.436,540.679,538.677,0.0
52853.0,STARLINK-4189,PAYLOAD,2024-02-12 08:44:05,15.08840574,0.0001459,53.217,179.3726,79.6158,280.4998,6.4682e-05,7.42e-06,0.0,0 STARLINK-4189,1 52853U 22062Z   24043.36395769  .00000742  00000-0  64682-4 0  9999,2 52853  53.2170 179.3726 0001459  79.6158 280.4998 15.08840574 92231,6917.879,95.438,540.753,538.734,0.0
52853.0,STARLINK-4189,PAYLOAD,2024-02-12 13:30:15,15.08841419,0.0001416,53.2176,178.4791,83.3587,276.7566,5.2757e-05,5.52e-06,0.0,0 STARLINK-4189,1 52853U 22062Z   24043.56267748  .00000552  00000-0  52757-4 0  9995,2 52853  53.2176 178.4791 0001416  83.3587 276.7566 15.08841419 91776,6917.876,95.437,540.721,538.761,0.0
52853.0,STARLINK-4189,PAYLOAD,2024-02-12 16:41:01,15.08844322,0.0001646,53.2171,177.8857,72.2924,287.8247,9.7381e-05,1.262e-05,0.0,0 STARLINK-4189,1 52853U 22062Z   24043.69515584  .00001262  00000-0  97381-4 0  9994,2 52853  53.2171 177.8857 0001646  72.2924 287.8247 15.08844322 91791,6917.867,95.437,540.871,538.593,0.0
52853.0,STARLINK-4189,PAYLOAD,2024-02-13 14:56:26,15.08841452,0.000128,53.2167,173.7201,96.4205,263.6933,-0.00011057,-2.047e-05,0.0,0 STARLINK-4189,1 52853U 22062Z   24044.62252351 -.00002047  00000-0 -11057-3 0  9997,2 52853  53.2167 173.7201 0001280  96.4205 263.6933 15.08841452 91939,6917.876,95.437,540.626,538.855,0.0
52853.0,STARLINK-4189,PAYLOAD,2024-02-13 18:07:11,15.08849539,0.0001386,53.2158,173.1232,95.9804,264.1346,-7.6223e-05,-1.501e-05,0.0,0 STARLINK-4189,1 52853U 22062Z   24044.75499619 -.00001501  00000-0 -76223-4 0  9992,2 52853  53.2158 173.1232 0001386  95.9804 264.1346 15.08849539 92448,6917.851,95.437,540.675,538.757,0.0
52853.0,STARLINK-4189,PAYLOAD,2024-02-14 14:47:12,15.08850672,0.000174,53.2159,169.2602,81.2063,278.9126,0.00025361,3.752e-05,0.0,0 STARLINK-4189,1 52853U 22062Z   24045.61611652  .00003752  00000-0  25361-3 0  9995,2 52853  53.2159 169.2602 0001740  81.2063 278.9126 15.08850672 92084,6917.848,95.437,540.916,538.509,0.0
52853.0,STARLINK-4189,PAYLOAD,2024-02-15 11:27:14,15.08835471,0.0001414,53.2135,165.3945,84.0339,276.0814,5.34e-05,5.62e-06,0.0,0 STARLINK-4189,1 52853U 22062Z   24046.47724761  .00000562  00000-0  53400-4 0  9998,2 52853  53.2135 165.3945 0001414  84.0339 276.0814 15.08835471 92702,6917.894,95.438,540.737,538.781,0.0
52853.0,STARLINK-4189,PAYLOAD,2024-02-15 14:38:00,15.08836819,0.0001623,53.2143,164.7983,78.4204,281.697,7.1098e-05,8.44e-06,0.0,0 STARLINK-4189,1 52853U 22062Z   24046.60972785  .00000844  00000-0  71098-4 0  9990,2 52853  53.2143 164.7983 0001623  78.4204 281.6970 15.08836819 92236,6917.89,95.438,540.878,538.632,0.0
52853.0,STARLINK-4189,PAYLOAD,2024-02-16 14:28:46,15.08848614,0.0001448,53.2152,160.3431,86.4447,273.6711,0.00015176,2.129e-05,0.0,0 STARLINK-4189,1 52853U 22062Z   24047.60332159  .00002129  00000-0  15176-3 0  9998,2 52853  53.2152 160.3431 0001448  86.4447 273.6711 15.08848614 92385,6917.854,95.437,540.721,538.717,0.0
52853.0,STARLINK-4189,PAYLOAD,2024-02-17 11:08:48,15.08835036,0.000155,53.2163,156.48,107.5893,252.5268,-2.4466e-05,-6.77e-06,0.0,0 STARLINK-4189,1 52853U 22062Z   24048.46444904 -.00000677  00000-0 -24466-4 0  9996,2 52853  53.2163 156.4800 0001550 107.5893 252.5268 15.08835036 93004,6917.896,95.438,540.833,538.688,0.0
52853.0,STARLINK-4189,PAYLOAD,2024-02-17 14:19:34,15.08837229,0.0001406,53.2161,155.8825,107.5421,252.5725,7.9524e-05,9.78e-06,0.0,0 STARLINK-4189,1 52853U 22062Z   24048.59692996  .00000978  00000-0  79524-4 0  9993,2 52853  53.2161 155.8825 0001406 107.5421 252.5725 15.08837229 92530,6917.889,95.438,540.727,538.781,0.0
52853.0,STARLINK-4189,PAYLOAD,2024-02-18 14:10:21,15.08844214,0.0001628,53.2174,151.4207,91.0681,269.0498,1.4251e-05,-6.1e-07,0.0,0 STARLINK-4189,1 52853U 22062Z   24049.59052842 -.00000061  00000-0  14251-4 0  9994,2 52853  53.2174 151.4207 0001628  91.0681 269.0498 15.08844214 92689,6917.868,95.437,540.859,538.606,0.0
52853.0,STARLINK-4189,PAYLOAD,2024-02-19 10:50:23,15.08830188,0.0001727,53.218,147.5553,96.7018,263.4171,7.977e-05,9.81e-06,0.0,0 STARLINK-4189,1 52853U 22062Z   24050.45165777  .00000981  00000-0  79770-4 0  9990,2 52853  53.2180 147.5553 0001727  96.7018 263.4171 15.08830188 93303,6917.91,95.438,540.97,538.581,0.0
52853.0,STARLINK-4189,PAYLOAD,2024-02-19 14:01:09,15.08835667,0.0001558,53.2173,146.9606,99.3768,260.74,1.6084e-05,-3.2e-07,0.0,0 STARLINK-4189,1 52853U 22062Z   24050.58413604 -.00000032  00000-0  16084-4 0  9996,2 52853  53.2173 146.9606 0001558  99.3768 260.7400 15.08835667 92839,6917.894,95.438,540.836,538.681,0.0
52853.0,STARLINK-4189,PAYLOAD,2024-02-20 12:16:33,15.08833397,0.0001626,53.2169,142.7978,92.4664,267.6514,3.8167e-05,3.19e-06,0.0,0 STARLINK-4189,1 52853U 22062Z   24051.51150016  .00000319  00000-0  38167-4 0  9998,2 52853  53.2169 142.7978 0001626  92.4664 267.6514 15.08833397 93465,6917.901,95.438,540.89,538.641,0.0
52853.0,STARLINK-4189,PAYLOAD,2024-02-21 12:07:19,15.08837932,0.0001583,53.2166,138.3353,97.1761,262.9411,0.00033268,5.01e-05,0.0,0 STARLINK-4189,1 52853U 22062Z   24052.50509001  .00005010  00000-0  33268-3 0  9999,2 52853  53.2166 138.3353 0001583  97.1761 262.9411 15.08837932 93612,6917.887,95.438,540.847,538.657,0.0
52853.0,STARLINK-4189,PAYLOAD,2024-02-22 11:58:07,15.08822462,0.0001772,53.2173,133.8716,106.3177,253.801,0.00031058,4.656e-05,0.0,0 STARLINK-4189,1 52853U 22062Z   24053.49869733  .00004656  00000-0  31058-3 0  9999,2 52853  53.2173 133.8716 0001772 106.3177 253.8010 15.08822462 93769,6917.934,95.439,541.025,538.573,0.0
52853.0,STARLINK-4189,PAYLOAD,2024-02-23 11:48:53,15.08852543,0.0001358,53.216,129.417,89.4089,270.7059,-4.1513e-05,-9.49e-06,0.0,0 STARLINK-4189,1 52853U 22062Z   24054.49228745 -.00000949  00000-0 -41513-4 0  9993,2 52853  53.2160 129.4170 0001358  89.4089 270.7059 15.08852543 93914,6917.842,95.437,540.646,538.768,0.0
